OBJECT_NAME,OBJECT_ID,EPOCH,MEAN_MOTION,ECCENTRICITY,INCLINATION,RA_OF_ASC_NODE,ARG_OF_PERICENTER,MEAN_ANOMALY,EPHEMERIS_TYPE,CLASSIFICATION_TYPE,NORAD_CAT_ID,ELEMENT_SET_NO,REV_AT_EPOCH,BSTAR,MEAN_MOTION_DOT,MEAN_MOTION_DDOT
DEKART,2020-068H,2026-07-23T13:58:18.045984,15.38097755,.00100986,97.8750,216.4800,145.8928,214.2967,0,U,46493,999,32136,.35717642E-3,.13332E-3,0
NORBI,2020-068J,2026-07-23T14:04:13.402272,15.49924092,.00086667,97.8621,223.7998,120.1541,240.0569,0,U,46494,999,32184,.49594382E-3,.27714E-3,0
SALSAT,2020-068K,2026-07-23T10:36:40.860576,15.30258663,.00100914,97.8868,209.7289,164.5021,195.6529,0,U,46495,999,32090,.2545612E-3,.7378E-4,0
ICEYE-X6,2020-068M,2026-07-23T13:38:48.874272,15.04697815,.00063626,98.0994,199.9872,344.1371,15.9654,0,U,46497,999,31870,.17649769E-3,.2417E-4,0
NETSAT-4,2020-068U,2026-07-23T00:26:47.663808,15.44960693,.00057101,97.8610,215.1699,167.1135,193.0259,0,U,46504,999,32130,.44655502E-3,.20969E-3,0
NETSAT-3,2020-068V,2026-07-23T10:34:35.969376,15.43832128,.00048514,97.8664,213.7994,180.2815,179.8429,0,U,46505,999,32127,.44325655E-3,.20026E-3,0
NETSAT-1,2020-068W,2026-07-23T10:39:58.238784,15.35391814,.00031203,97.8764,207.6964,217.4832,142.6193,0,U,46506,999,32086,.3586521E-3,.12249E-3,0
NETSAT-2,2020-068X,2026-07-23T10:59:17.657664,15.47450695,.0003425,97.8618,215.6811,177.8424,182.2840,0,U,46507,999,32134,.46178008E-3,.23621E-3,0
TIANQI-6,2020-076D,2026-07-23T07:16:32.684448,15.07387781,.00096414,34.9974,186.7704,132.2118,227.9411,0,U,46810,999,31403,.21162258E-3,.3243E-4,0
KSM1-C,2020-081B,2026-07-23T07:38:14.959680,15.27266997,.0002626,36.8934,195.7884,201.2749,158.7892,0,U,46906,999,31469,.33651551E-3,.9117E-4,0
KSM1-D,2020-081C,2026-07-23T08:51:01.125792,15.25176139,.00042641,36.8944,205.1969,212.7788,147.2696,0,U,46907,999,31462,.31682037E-3,.8047E-4,0
KSM1-A,2020-081H,2026-07-23T08:10:03.756000,15.26457736,.00043242,36.8938,198.3247,253.9843,106.0431,0,U,46912,999,31470,.33677548E-3,.8902E-4,0
R2,2020-081J,2026-07-23T05:51:02.796768,15.25902537,.00092181,36.8966,199.0894,232.2934,127.6979,0,U,46913,999,31749,.29902959E-3,.7765E-4,0
KSM1-B,2020-081K,2026-07-23T09:03:20.308032,15.24961021,.0006222,36.8998,205.8377,227.2914,132.7312,0,U,46914,999,31771,.33337603E-3,.842E-4,0
GONETS-M 20,2020-091A,2026-07-23T15:10:09.202944,12.42894674,.00221998,82.5037,279.7831,101.5769,258.7804,0,U,47227,999,25560,-.401686E-5,.1E-6,0
GONETS-M 21,2020-091B,2026-07-23T14:32:47.305248,12.42887560,.00160323,82.4961,278.4840,114.9499,245.3248,0,U,47228,999,25559,-.17250236E-4,.8E-7,0
GONETS-M 22,2020-091C,2026-07-23T13:53:48.518592,12.42893691,.00230418,82.5019,279.4164,97.2328,263.1372,0,U,47229,999,25554,-.18266451E-3,-.15E-6,0
CUBEL,2021-006AM,2026-07-23T09:03:48.661056,15.42242731,.00072996,97.2309,254.6404,58.8362,301.3601,0,U,47448,999,30533,.47355422E-3,.20309E-3,0
ARKTIKA-M 1,2021-016A,2026-07-17T21:31:16.955328,2.00610215,.72985164,63.2571,53.1467,270.0868,14.5016,0,U,47719,999,3940,0,-.295E-5,0
STARLINK-2342,2021-021Z,2026-07-23T14:00:01.000224,15.98284649,.00124342,53.1489,323.5762,327.2457,278.7285,0,U,47883,999,592,.97566968E-3,.465768E-2,.10244379E-3
GRUS-1B,2021-022C,2026-07-23T15:06:13.528800,14.98801227,.00148068,97.5345,86.6089,186.0779,174.0267,0,U,47934,999,29135,.15839106E-3,.1856E-4,0
2021-022F,2021-022F,2026-07-23T15:57:49.372992,15.33577879,.00084165,97.3847,105.3366,333.8664,26.2152,0,U,47937,999,29530,.30196831E-3,.9735E-4,0
UNISAT-7,2021-022P,2026-07-23T06:21:15.700320,15.41364625,.00068881,97.3845,109.5818,314.3611,45.7071,0,U,47945,999,29541,.3508859E-3,.14579E-3,0
2021-022X,2021-022X,2026-07-22T21:01:45.733728,15.83287789,.0003388,97.3856,123.3968,141.4102,218.7410,0,U,47953,999,29613,.92378163E-3,.202919E-2,0
GLOBAL-9,2021-023G,2026-07-23T14:26:06.598464,15.47893701,.00046059,44.9815,45.6498,220.1764,139.8787,0,U,47971,999,30058,.42615451E-3,.22403E-3,0
AII-BRAVO,2021-034C,2026-07-23T10:09:44.210304,15.03723036,.00071047,97.5609,258.5090,134.0378,226.1434,0,U,48270,999,28506,.30403002E-3,.4112E-4,0
TYVAK-182A,2021-034D,2026-07-23T14:24:23.120640,15.06448662,.00056783,97.5702,262.8882,190.4447,169.6664,0,U,48271,999,28531,.23832103E-3,.3455E-4,0
CSS (TIANHE),2021-035A,2026-07-23T00:49:30.417312,15.58280026,.00017398,41.4690,104.3124,306.7625,53.3054,0,U,48274,999,29876,.14911554E-3,.11304E-3,0
TYVAK-0130,2021-041BF,2026-07-23T09:59:57.841152,15.28012125,.00084178,52.9934,217.7722,290.6049,69.4045,0,U,48606,999,28592,.19543911E-3,.5066E-4,0
HAIYANG-2D,2021-043A,2026-07-23T14:01:40.175328,13.83374406,.0011621,65.9966,214.0825,264.8364,95.1378,0,U,48621,999,26158,.10898645E-3,.39E-6,0
2021-050D,2021-050D,2026-07-23T14:11:18.824640,15.23664663,.00070853,97.3324,279.8027,127.8475,232.3404,0,U,48843,999,28450,.3956927E-3,.943E-4,0
TYVAK-0173,2021-059P,2026-07-23T04:29:07.397088,14.81988022,.00071436,96.0066,271.5940,265.2158,94.8245,0,U,48892,999,27357,.16651927E-3,.1289E-4,0
MANDRAKE 2 ABLE,2021-059AE,2026-07-23T06:12:40.497984,15.56343456,.00044162,97.7034,36.8325,200.4392,159.6686,0,U,48907,999,28273,.33788802E-3,.23732E-3,0
MANDRAKE 2 BAKER,2021-059AF,2026-07-23T12:41:21.769152,15.61339784,.0003405,97.6995,40.2590,186.3659,173.7555,0,U,48908,999,28296,.35070519E-3,.29763E-3,0
PACE-1,2021-059AG,2026-07-23T01:16:47.121888,15.86907404,.00029388,97.6731,46.4314,154.3467,205.7950,0,U,48909,999,28347,.59517733E-3,.154457E-2,0
YAM-3,2021-059AN,2026-07-23T13:37:13.651968,15.49291968,.0004491,97.6999,33.9232,203.2721,156.8326,0,U,48915,999,28262,.21901502E-3,.11878E-3,0
FARADAY_PHOENIX,2021-059AX,2026-07-23T06:56:40.425792,15.90523968,.00056411,97.6745,46.6465,185.7960,174.3248,0,U,48924,999,28337,.11373644E-2,.34693E-2,.4696609E-4
DEMO8 (TENZING),2021-059CA,2026-07-23T01:40:02.678016,15.56272545,.00063028,97.7018,40.2560,200.3269,159.7735,0,U,48951,999,28288,.32777235E-3,.22966E-3,0
FENGYUN 3E,2021-062A,2026-07-23T13:30:08.163072,14.19907486,.00018355,98.7512,207.5666,24.7163,335.4101,0,U,49008,999,26174,.14052576E-3,.254E-5,0
ISS (NAUKA),2021-066A,2026-07-23T05:59:51.287424,15.49111598,.00069057,51.6313,121.6296,328.4486,31.6087,0,U,49044,999,57667,.18022249E-3,.9534E-4,0
STARLINK-3100,2021-082Q,2026-07-23T13:23:29.454720,14.98329090,.00033648,70.0003,311.8741,270.6296,89.4478,0,U,49144,999,26633,-.34269919E-4,-.502E-5,0
2021-091B,2021-091B,2026-07-23T15:06:03.741408,15.18708991,.00115142,97.4485,31.6538,274.1855,85.8063,0,U,49316,999,26451,.27698847E-4,.507E-5,0
SDGSAT 1,2021-100A,2026-07-23T14:07:48.044064,15.19274533,.00107366,97.2619,250.1451,136.5625,223.6458,0,U,49387,999,26144,.28560626E-3,.5968E-4,0
TEIKYOSAT-4 (OORURI),2021-102B,2026-07-23T02:44:15.555552,15.09618180,.00124836,97.3662,232.2007,161.6749,198.4933,0,U,49396,999,25814,.90902281E-4,.1403E-4,0
Z-SAT,2021-102E,2026-07-23T13:48:43.688160,15.18512161,.00182038,97.3315,238.7956,117.7343,242.5740,0,U,49399,999,25896,.23350524E-3,.4772E-4,0
HIBARI,2021-102F,2026-07-23T13:56:51.296928,15.32414449,.00130687,97.3219,250.0814,75.5798,284.6894,0,U,49400,999,25976,.36079679E-3,.11249E-3,0
KOSEN-1,2021-102H,2026-07-23T13:47:14.403264,15.27306037,.00153138,97.3173,246.0315,81.4670,278.8304,0,U,49402,999,25957,.28958415E-3,.7699E-4,0
GLOBAL-14,2021-106A,2026-07-23T00:12:02.828448,15.52129301,.00185817,42.0043,77.9358,274.4985,85.3736,0,U,49469,999,26369,.46819245E-3,.29047E-3,0
GAOFEN-3 02,2021-109A,2026-07-23T14:39:57.184992,14.42211192,.00015521,98.4104,212.1913,216.4441,143.6644,0,U,49495,999,24556,.164466E-4,.11E-6,0
GLOBAL-12,2021-115BA,2026-07-23T14:05:03.046848,15.55685757,.0003074,53.1928,229.2265,82.1783,277.9578,0,U,49772,999,26156,.3704644E-3,.25528E-3,0
GLOBAL-13,2021-115BB,2026-07-23T11:57:47.674080,15.47339788,.00003094,53.1961,241.7951,43.9276,316.1757,0,U,49773,999,26138,.36107103E-3,.18352E-3,0
GLOBAL-17,2021-120A,2026-07-23T03:53:41.443872,15.54027238,.00143135,41.9927,194.6241,152.7031,207.4569,0,U,49949,999,26049,.41458699E-3,.27447E-3,0
GLOBAL-16,2021-120B,2026-07-23T06:58:33.210624,15.51761607,.00121197,41.9930,198.2950,143.7500,216.4168,0,U,49950,999,26045,.38118175E-3,.2316E-3,0
XW-3 (CAS-9),2021-131B,2026-07-23T15:18:52.454304,14.41387415,.00040352,98.4981,296.8315,8.2020,351.9235,0,U,50466,999,24036,.15326804E-3,.452E-5,0
ION SCV-004,2022-002K,2026-07-23T14:00:01.116864,15.30769274,.00063415,97.2814,261.5612,210.9515,149.1354,0,U,50993,999,25086,.172568E-3,.5058E-4,0
ETV-A1,2022-002CE,2026-07-23T15:16:13.974240,15.41371139,.00047884,97.2859,270.8497,191.3476,168.7664,0,U,51060,999,25145,.28853334E-3,.11968E-3,0
BRO-5,2022-002CF,2026-07-23T15:16:10.711776,15.49128621,.00062666,97.2974,278.6743,172.5045,187.6301,0,U,51061,999,25189,.26519129E-3,.14338E-3,0
LUDI TANCE 1-01A (L-SAR 01A),2022-007A,2026-07-23T14:50:06.381024,14.88416506,.00016227,97.8111,211.5217,90.6388,269.5014,0,U,51284,999,24389,.67667931E-4,.573E-5,0
LUDI TANCE 1-01B (L-SAR 01B),2022-018A,2026-07-23T14:01:40.875168,14.88421586,.00016253,97.8115,211.4873,91.0784,269.0619,0,U,51822,999,23912,.6717969E-4,.568E-5,0
2022-019D,2022-019D,2026-07-22T11:19:40.209024,15.76816203,.00013608,97.3639,298.0375,292.5497,67.5624,0,U,51827,999,24525,.68064777E-3,.110262E-2,0
2022-019J,2022-019J,2026-07-23T14:22:45.624288,15.20580308,.00104571,97.3413,266.4677,100.8061,259.4352,0,U,51832,999,24333,.85694539E-4,.1812E-4,0
2022-023F,2022-023F,2026-07-23T05:54:54.307296,15.18026393,.01336287,63.4455,150.9015,341.5937,18.0364,0,U,51951,999,24318,.43261057E-3,.10951E-3,0
CZ-4C R/B,2022-027B,2026-07-23T13:25:58.532736,13.65481628,.02356665,63.3950,322.0896,22.5246,338.5932,0,U,52085,999,21700,-.7703716E-5,-.103E-5,0
MERIDIAN 10,2022-030A,2026-07-22T20:38:03.148224,2.00608323,.67939268,62.6775,136.9373,272.8362,17.5910,0,U,52145,999,3174,0,.121E-5,0
OMNI-L1,2022-033A,2026-07-23T05:07:33.486528,14.82864997,.00059478,97.8384,282.6917,153.9059,206.2455,0,U,52157,999,23279,.20432634E-3,.1603E-4,0
